{"type": "FeatureCollection", "features": [{"type": "Feature", "properties": {"id": 142, "tea": false}, "geometry": {"type": "MultiPolygon", "coordinates": [[[[95.52007288538397, 27.348368469527173], [95.51473588229196, 27.351422980730774], [95.50614297165326, 27.347932110783802], [95.50369264947894, 27.339842691002833], [95.5085261617132, 27.333834366767178], [95.51664914755136, 27.331081950078218], [95.52430220858895, 27.333834366767178], [95.52943781533787, 27.3366539155705], [95.53457342208678, 27.343904183921907], [95.53541257351634, 27.34940901729983], [95.52007288538397, 27.348368469527173]]]]}}, {"type": "Feature", "properties": {"id": 143, "tea": false}, "geometry": {"type": "MultiPolygon", "coordinates": [[[[95.46431654349405, 27.2903314035646], [95.45565472058117, 27.28723789538143], [95.45892500066051, 27.2781341427281], [95.46970808632757, 27.276719967558652], [95.4788118389809, 27.28856368460279], [95.47797217247404, 27.29232008739664], [95.46595168353372, 27.294264578254634], [95.45459408920408, 27.294529736098905], [95.45525698381476, 27.28714950943334], [95.46431654349405, 27.2903314035646]]]]}}, {"type": "Feature", "properties": {"id": 144, "tea": false}, "geometry": {"type": "MultiPolygon", "coordinates": [[[[95.442428762979, 27.284880329032305], [95.44223219477966, 27.2845854767333], [95.4422634669932, 27.284411245829343], [95.4427057454417, 27.284104480306137], [95.44284721497911, 27.284357636320433], [95.4427757356339, 27.284628662171034], [95.442428762979, 27.284880329032305]]]]}}, {"type": "Feature", "properties": {"id": 145, "tea": false}, "geometry": {"type": "MultiPolygon", "coordinates": [[[[95.43908507161419, 27.285082745458524], [95.43991199321776, 27.28532832774451], [95.44041083223617, 27.285311060240023], [95.44041466945939, 27.285184431873812], [95.44003094713754, 27.284883209851163], [95.43933640973499, 27.28468559285541], [95.4390064085382, 27.284898558744036], [95.43892774546222, 27.285021349887028], [95.43908507161419, 27.285082745458524]]]]}}, {"type": "Feature", "properties": {"id": 146, "tea": false}, "geometry": {"type": "MultiPolygon", "coordinates": [[[[95.4381377637357, 27.28587003457635], [95.43876880627747, 27.28659988804994], [95.43958624216788, 27.286620099376897], [95.44017686205574, 27.286379809156365], [95.44021054760067, 27.285575847483923], [95.43949416834506, 27.285283906094488], [95.4382365746675, 27.2850705643099], [95.43781438250431, 27.2854321224922], [95.4381377637357, 27.28587003457635]]]]}}, {"type": "Feature", "properties": {"id": 146, "tea": false}, "geometry": {"type": "MultiPolygon", "coordinates": [[[[95.50852940542995, 27.25970022409969], [95.51006944491148, 27.260075843485424], [95.51227307864113, 27.257509111016226], [95.51412613427743, 27.256044195411857], [95.51610439637564, 27.255180270824663], [95.51720621324047, 27.255455725040868], [95.51676799062378, 27.253552586819804], [95.51655197178466, 27.251518168347516], [95.51402074989566, 27.25149689757534], [95.51176604804496, 27.25168833452493], [95.51074505098049, 27.249731423484697], [95.50800112136973, 27.249433632674226], [95.50642708422868, 27.24996540197864], [95.50819255831932, 27.253389996299045], [95.50815001677496, 27.25602757204892], [95.50772460133143, 27.25777177536739], [95.50852940542995, 27.25970022409969]]]]}}, {"type": "Feature", "properties": {"id": 147, "tea": false}, "geometry": {"type": "MultiPolygon", "coordinates": [[[[95.60631433424123, 27.25233592268979], [95.61939554105015, 27.249964953955672], [95.6178421477416, 27.24097162427454], [95.61671500793597, 27.240278035678077], [95.60980528554025, 27.23981738751836], [95.60097167965394, 27.243827736202938], [95.59828908154736, 27.250764555549235], [95.60631433424123, 27.25233592268979]]]]}}, {"type": "Feature", "properties": {"id": 148, "tea": false}, "geometry": {"type": "MultiPolygon", "coordinates": [[[[95.6692797517507, 27.24082956042903], [95.67022690013015, 27.241110026696735], [95.67188211089037, 27.240972092466716], [95.67277868338547, 27.24079737577536], [95.67286604173115, 27.239703097550553], [95.67175337227567, 27.239192740899487], [95.67114186385594, 27.238466287288063], [95.66899008986766, 27.23840191798072], [95.66880617756097, 27.23994678135692], [95.6692797517507, 27.24082956042903]]]]}}, {"type": "Feature", "properties": {"id": 150, "tea": false}, "geometry": {"type": "MultiPolygon", "coordinates": [[[[95.65974614573103, 27.24275813816436], [95.65855478229803, 27.239813194846803], [95.66137925066168, 27.237470626298748], [95.66480609379484, 27.238380881505993], [95.66738961225069, 27.241017944385803], [95.6697723391167, 27.2423431688787], [95.6697723391167, 27.244618806896813], [95.66795182870221, 27.245515675998067], [95.6644848272511, 27.24589048696576], [95.66179421994732, 27.243253424085946], [95.65974614573103, 27.24275813816436]]]]}}, {"type": "Feature", "properties": {"id": 152, "tea": false}, "geometry": {"type": "MultiPolygon", "coordinates": [[[[95.66301098772449, 27.24987130719268], [95.66427431624409, 27.250794086285257], [95.6660759325677, 27.25154109793163], [95.66739418841424, 27.252266138647222], [95.66834992390297, 27.253254830532125], [95.6696791652149, 27.253606365424538], [95.67081066814984, 27.253101034016698], [95.67122811583458, 27.252595702608858], [95.67150275246928, 27.251936574685587], [95.67127205769613, 27.251299417693094], [95.66996478731498, 27.25042058046207], [95.66843780762608, 27.24895951356549], [95.66557060115986, 27.248487138553813], [95.66647140932166, 27.2475973158574], [95.66386785402474, 27.248476153088426], [95.66301098772449, 27.24987130719268]]]]}}, {"type": "Feature", "properties": {"id": 153, "tea": false}, "geometry": {"type": "MultiPolygon", "coordinates": [[[[95.99768014756279, 27.394838964641036], [95.99768014756279, 27.394838964641036], [95.99710554852508, 27.38578902979718], [96.00400073697755, 27.381407712134678], [96.00414438673697, 27.37580537151705], [96.00414438673697, 27.373866099764797], [96.00874117903861, 27.37235777729082], [96.0097467273546, 27.367258210831185], [96.00514993505296, 27.36503163956008], [95.99861387099905, 27.36481616492094], [95.98475166921442, 27.36970025674143], [95.98475166921442, 27.36970025674143], [95.96765734784269, 27.375446247118486], [95.97448071141544, 27.386148154195745], [95.98697824048553, 27.394120715843904], [95.9939452538177, 27.397065535912144], [95.99768014756279, 27.394838964641036]]]]}}, {"type": "Feature", "properties": {"id": 154, "tea": false}, "geometry": {"type": "MultiPolygon", "coordinates": [[[[95.95764006213493, 27.395899130291355], [95.9544256136382, 27.395916812610817], [95.95326636636983, 27.393598318074094], [95.95626987065604, 27.388829596356516], [95.96259303757438, 27.39143790271033], [95.96488518558228, 27.39554796120725], [95.96027454303766, 27.39802453491693], [95.95777162279914, 27.399368207887075], [95.95764006213493, 27.395899130291355]]]]}}, {"type": "Feature", "properties": {"id": 155, "tea": false}, "geometry": {"type": "MultiPolygon", "coordinates": [[[[95.92433414113164, 27.369290667802325], [95.9218799783096, 27.36702528673583], [95.92376779586502, 27.364146364963837], [95.9232014505984, 27.361880983897347], [95.9251364635927, 27.360229143536362], [95.92834575343689, 27.360795488802985], [95.93013918011452, 27.361597811264033], [95.93216858398658, 27.363768801452753], [95.93386761978645, 27.366175768835898], [95.93518909207523, 27.367402850246915], [95.93334846995872, 27.370753726407763], [95.92966722572567, 27.3716032443077], [95.92655232675925, 27.372263980452093], [95.92433414113164, 27.369290667802325]]]]}}, {"type": "Feature", "properties": {"id": 156, "tea": false}, "geometry": {"type": "MultiPolygon", "coordinates": [[[[95.85024872774656, 27.506796639631713], [95.85208409727822, 27.506292263271867], [95.85431876476144, 27.505808902593678], [95.8549352247568, 27.50496827532727], [95.8540245452182, 27.504043585334216], [95.85156571046394, 27.50419770033306], [95.84996151343054, 27.504519940785183], [95.84874260389424, 27.505668798049278], [95.8492469802541, 27.506873697131134], [95.85024872774656, 27.506796639631713]]]]}}, {"type": "Feature", "properties": {"id": 157, "tea": false}, "geometry": {"type": "MultiPolygon", "coordinates": [[[[95.85199054739618, 27.508084786909734], [95.85304096800873, 27.50813021050379], [95.85404028707795, 27.50760783917215], [95.85511909743677, 27.507244450419705], [95.85645341551215, 27.50693216321057], [95.85706663403191, 27.50689809551503], [95.85645909346141, 27.506608520102926], [95.8556301128699, 27.5064665713715], [95.85456265840959, 27.506404113929676], [95.85341003471044, 27.506318944690822], [95.852450461286, 27.506722079088064], [95.85154766735415, 27.507034366297198], [95.85103097397176, 27.507244450419705], [95.85199054739618, 27.508084786909734]]]]}}, {"type": "Feature", "properties": {"id": 158, "tea": false}, "geometry": {"type": "MultiPolygon", "coordinates": [[[[95.86432546308647, 27.518142282715086], [95.86368264355542, 27.51804302381691], [95.86317216922194, 27.517390751057466], [95.86316271599354, 27.516705391998627], [95.86338014024669, 27.516506874202275], [95.86410331221913, 27.516577773415257], [95.86510062781508, 27.516554140344265], [95.86510062781508, 27.516554140344265], [95.8654598504942, 27.517178053418515], [95.86542676419481, 27.51787759231995], [95.8650722681299, 27.518312440826247], [95.86441526875625, 27.51841642633862], [95.86432546308647, 27.518142282715086]]]]}}, {"type": "Feature", "properties": {"id": 162, "tea": false}, "geometry": {"type": "MultiPolygon", "coordinates": [[[[95.85596097853944, 27.5167276314575], [95.85596097853944, 27.517205187932262], [95.85730242931125, 27.517398356843405], [95.85747413501004, 27.516464707106223], [95.8582468106546, 27.515649105036964], [95.85647609563581, 27.51499447706032], [95.85647609563581, 27.51499447706032], [95.85533854538131, 27.51540227809495], [95.8548395256942, 27.516287635604346], [95.85512391325783, 27.516910068762463], [95.8558912230993, 27.517167627310652], [95.85596097853944, 27.5167276314575]]]]}}, {"type": "Feature", "properties": {"id": 159, "tea": false}, "geometry": {"type": "MultiPolygon", "coordinates": [[[[95.84427104049503, 27.518929677845335], [95.84326899342425, 27.518858755644878], [95.84286980686953, 27.517846385619507], [95.84281630764055, 27.517064473811292], [95.84358175814754, 27.516582980750442], [95.84425255617248, 27.516327830581446], [95.8450426986313, 27.516422483063494], [95.84571761198156, 27.51689574547373], [95.8458163797889, 27.517722925860316], [95.8456805740538, 27.518043921234213], [95.84575464990931, 27.519105675163264], [95.84427104049503, 27.518929677845335]]]]}}, {"type": "Feature", "properties": {"id": 160, "tea": false}, "geometry": {"type": "MultiPolygon", "coordinates": [[[[95.83474126476551, 27.51657085514065], [95.83474126476551, 27.51657085514065], [95.83546461256687, 27.517826900935265], [95.83575619462634, 27.517911011144726], [95.83664215549933, 27.51657085514065], [95.83589077096147, 27.51553349589063], [95.83555433012363, 27.515112944843324], [95.83448332678982, 27.5158082559082], [95.83474126476551, 27.51657085514065]]]]}}, {"type": "Feature", "properties": {"id": 161, "tea": false}, "geometry": {"type": "MultiPolygon", "coordinates": [[[[95.8369772018528, 27.51313843195175], [95.83607273420581, 27.512291521336838], [95.83625362773522, 27.51123082745991], [95.83746232540892, 27.510457918743388], [95.83866280064947, 27.510507253342315], [95.83942748693285, 27.510647034705944], [95.83946859909861, 27.512077738074822], [95.83927948313607, 27.513590665775244], [95.83839146035538, 27.514421131523846], [95.83692786725388, 27.514289572593377], [95.83574383687963, 27.513664667673634], [95.83536560495453, 27.512686198128254], [95.83553005361762, 27.511839287513343], [95.8369772018528, 27.51313843195175]]]]}}, {"type": "Feature", "properties": {"id": 163, "tea": false}, "geometry": {"type": "MultiPolygon", "coordinates": [[[[95.95922112712708, 27.53729852545756], [95.95465816605727, 27.532895668284937], [95.96160267259772, 27.527552200716347], [95.96644581548762, 27.52855285007376], [95.96850715316388, 27.53089436957011], [95.96964789343134, 27.532895668284937], [95.964204360927, 27.532575460490566], [95.95928116608853, 27.536297876100146], [95.95922112712708, 27.53729852545756]]]]}}, {"type": "Feature", "properties": {"id": 169, "tea": false}, "geometry": {"type": "MultiPolygon", "coordinates": [[[[96.0061746252107, 27.518353898455167], [96.0061746252107, 27.518353898455167], [96.0058851943654, 27.517110299987987], [96.00696340377813, 27.516528257738642], [96.00838829409346, 27.51653143829738], [96.00918025321963, 27.517161188927822], [96.00925340607063, 27.518124898225917], [96.00833740515363, 27.518468398569794], [96.0061746252107, 27.518353898455167]]]]}}, {"type": "Feature", "properties": {"id": 164, "tea": false}, "geometry": {"type": "MultiPolygon", "coordinates": [[[[95.58599973669352, 27.803799994344978], [95.57675486862234, 27.7712985050322], [95.59625576221, 27.78242123693035], [95.62124579621494, 27.777076547576694], [95.63395748981283, 27.79599963690991], [95.62355701323274, 27.81492272624313], [95.59466680051027, 27.8075557219989], [95.57877718351291, 27.810300292207533], [95.58599973669352, 27.803799994344978]]]]}}, {"type": "Feature", "properties": {"id": 166, "tea": false}, "geometry": {"type": "MultiPolygon", "coordinates": [[[[95.15595158852848, 27.62205820887874], [95.13683763219863, 27.616667092990834], [95.12964947768143, 27.594939262291085], [95.14598619249325, 27.567983682851548], [95.17800615352446, 27.571251025813915], [95.189768588189, 27.59444916084673], [95.19238246255888, 27.62107800599003], [95.1755556463027, 27.643459305282253], [95.15219414412176, 27.641335532356713], [95.15595158852848, 27.62205820887874]]]]}}, {"type": "Feature", "properties": {"id": 167, "tea": false}, "geometry": {"type": "MultiPolygon", "coordinates": [[[[95.17228578311688, 27.279300928365164], [95.17157134438008, 27.27610696695363], [95.17016347981053, 27.274657076576027], [95.17150830566801, 27.273123134582328], [95.17487037031174, 27.272366670037492], [95.17795926720315, 27.271126908700122], [95.17795926720315, 27.271126908700122], [95.17629924778532, 27.275749747585234], [95.17629924778532, 27.27835534768412], [95.17632026068934, 27.28035157356633], [95.17279009281344, 27.278733579956537], [95.17228578311688, 27.279300928365164]]]]}}, {"type": "Feature", "properties": {"id": 168, "tea": false}, "geometry": {"type": "MultiPolygon", "coordinates": [[[[95.23333714968409, 27.305058629245995], [95.24179543206633, 27.306486650946894], [95.24481624720285, 27.304124922749256], [95.23970832342656, 27.299785933734988], [95.23970832342656, 27.299785933734988], [95.23196405189476, 27.30033517285072], [95.22674628029533, 27.302532129313636], [95.23333714968409, 27.305058629245995]]]]}}, {"type": "Feature", "properties": {"id": 165, "tea": false}, "geometry": {"type": "MultiPolygon", "coordinates": [[[[95.14343958741914, 27.376057662507147], [95.1407809364293, 27.370129589354104], [95.1436910814317, 27.367039805771306], [95.15026585347417, 27.36872840842702], [95.15608614347897, 27.370919999107844], [95.15867293903666, 27.37099185454], [95.16230163836065, 27.36912361330389], [95.1640980241646, 27.36768650466073], [95.16898419355135, 27.368656552994864], [95.17031351904627, 27.370129589354104], [95.16948718157646, 27.373866071826324], [95.15942742107433, 27.376632505964412], [95.15339156477305, 27.377746265162862], [95.14943951600435, 27.377961831459338], [95.14343958741914, 27.376057662507147]]]]}}, {"type": "Feature", "properties": {"id": 7, "tea": false}, "geometry": {"type": "MultiPolygon", "coordinates": [[[[95.1942949794461, 27.321057268717396], [95.20808232677473, 27.31919850330529], [95.2089485475493, 27.318350328796857], [95.20885831621861, 27.316888581239763], [95.20952602806568, 27.314344057714454], [95.2101215548482, 27.313531975738293], [95.21044638763867, 27.31349588320602], [95.21064489656618, 27.313279328012378], [95.2104102951064, 27.312521384834625], [95.20909291767839, 27.311745395390737], [95.20732438359697, 27.311276192471176], [95.20541147938646, 27.311564932729368], [95.20254212307069, 27.313387605609197], [95.1942949794461, 27.321057268717396]]]]}}, {"type": "Feature", "properties": {"id": 36, "tea": false}, "geometry": {"type": "MultiPolygon", "coordinates": [[[[94.93223521817865, 27.39187074471476], [94.93781471855375, 27.379316868870788], [94.93405928560897, 27.367299483447503], [94.92751410247665, 27.367514079615777], [94.92257839060638, 27.364509733259954], [94.91989593850296, 27.358608338632447], [94.91850106340918, 27.34809312638707], [94.91281426494994, 27.34444499152643], [94.90691287032244, 27.340260366245108], [94.90369392779834, 27.34197713559129], [94.89564657148811, 27.340904154749925], [94.8885648979351, 27.336397635216194], [94.88234160905519, 27.335431952458965], [94.87815698377386, 27.338114404562376], [94.87762049335318, 27.343264712600927], [94.88019564737246, 27.34626905895675], [94.87783508952145, 27.35689156928626], [94.88244890713932, 27.357428059706944], [94.88920868643991, 27.358501040548312], [94.89500278298328, 27.363222156250316], [94.89714874466603, 27.366011906437866], [94.9009041776108, 27.365690012185457], [94.90433771630316, 27.360861598399314], [94.90755665882726, 27.36000321372622], [94.90820044733208, 27.361290790735858], [94.91667699597886, 27.36247106966136], [94.91742808256782, 27.367621377699912], [94.92322217911119, 27.37159140681296], [94.92515354462564, 27.377600099524606], [94.92279298677464, 27.378565782281836], [94.92279298677464, 27.378565782281836], [94.91968134233468, 27.37502494550533], [94.91774997682023, 27.378351186113562], [94.92064702509191, 27.381892022890064], [94.92086162126019, 27.386183946255525], [94.93223521817865, 27.39187074471476]]]]}}, {"type": "Feature", "properties": {"id": 37, "tea": false}, "geometry": {"type": "MultiPolygon", "coordinates": [[[[94.96453321281477, 27.307234386724566], [94.96668723940137, 27.304667886961816], [94.96595395375486, 27.300818137317684], [94.96279165940433, 27.295181003910212], [94.96040848105321, 27.28848977238589], [94.95697120458523, 27.286977370739983], [94.95536714223351, 27.289177227679485], [94.95078410694288, 27.287527334974857], [94.94519280388832, 27.28803146885683], [94.94326792906625, 27.28835228132717], [94.94056393824478, 27.28862726344461], [94.9393265187163, 27.29036881685505], [94.9378141170704, 27.291377084618986], [94.93808909918783, 27.2929353166178], [94.93804326883493, 27.294631039675334], [94.94083892036221, 27.29605178061543], [94.94785096435687, 27.29495185214568], [94.96453321281477, 27.307234386724566]]]]}}, {"type": "Feature", "properties": {"id": 49, "tea": false}, "geometry": {"type": "MultiPolygon", "coordinates": [[[[95.02440307032934, 27.355405981112565], [95.03012723512107, 27.359393601529277], [95.03385758970444, 27.35958655090428], [95.03552981762112, 27.358364538195932], [95.03810247595449, 27.357657057154256], [95.0388462096137, 27.357368177075593], [95.04133240498886, 27.358366905132286], [95.04392484802965, 27.358536901397255], [95.04556106207997, 27.357984413536105], [95.04721852566342, 27.355689463959024], [95.04921598177681, 27.35350076204755], [95.04964097243924, 27.35148205640104], [95.04973641436969, 27.33942251034293], [95.04973641436969, 27.33942251034293], [95.04655579969555, 27.33842856825726], [95.04867620947832, 27.335049165165977], [95.04701963933553, 27.333127543800348], [95.04251376854715, 27.32855541020626], [95.03529112272462, 27.329151775457664], [95.04125477523864, 27.336838260920185], [95.04132103804434, 27.342536862211364], [95.03423091783323, 27.34651263055405], [95.02866484215347, 27.344458483576997], [95.02376139453082, 27.346313842136915], [95.02508665064505, 27.353801539182303], [95.02440307032934, 27.355405981112565]]]]}}, {"type": "Feature", "properties": {"id": 69, "tea": false}, "geometry": {"type": "MultiPolygon", "coordinates": [[[[95.85215203509635, 27.69662775926319], [95.85441317303099, 27.696200763258368], [95.85519923385806, 27.695560269251132], [95.85526716504064, 27.693968738687698], [95.85463637548806, 27.69344469813632], [95.8550827804022, 27.692551888308056], [95.85466548885202, 27.692202527940474], [95.85436465075772, 27.692483957125468], [95.85380179238773, 27.6918725764822], [95.85398617702617, 27.69105740229117], [95.85243346428136, 27.690775973106174], [95.85198705936722, 27.691125333473757], [95.85168622127291, 27.69141646711341], [95.85128833863206, 27.69122237802031], [95.85112336290292, 27.691794940844957], [95.85069636689809, 27.691794940844957], [95.85048286889568, 27.692367503669608], [95.85054109562361, 27.693007997676844], [95.85022084862, 27.692872135311674], [95.84991030607104, 27.69338647140839], [95.85034700653051, 27.694347212419245], [95.85033730207586, 27.69485184406131], [95.84989089716173, 27.6953079534301], [95.84940567442897, 27.695472929159234], [95.84911454078932, 27.695220613338204], [95.84848375123674, 27.69536618015803], [95.84859050023795, 27.696957710721463], [95.85215203509635, 27.69662775926319]]]]}}, {"type": "Feature", "properties": {"id": 71, "tea": false}, "geometry": {"type": "MultiPolygon", "coordinates": [[[[95.86489620518132, 27.71972375896126], [95.86766594994799, 27.71862442727552], [95.86284031215864, 27.714426979020867], [95.86122700721722, 27.71673985867139], [95.86489620518132, 27.71972375896126]]]]}}, {"type": "Feature", "properties": {"id": 72, "tea": false}, "geometry": {"type": "MultiPolygon", "coordinates": [[[[95.87602774796774, 27.726668193143738], [95.87608633398412, 27.727371225340153], [95.88037483038227, 27.725930009337496], [95.88029280995936, 27.725180108327983], [95.87607461678084, 27.72398495359407], [95.87602774796774, 27.726668193143738]]]]}}, {"type": "Feature", "properties": {"id": 73, "tea": false}, "geometry": {"type": "MultiPolygon", "coordinates": [[[[95.72671690088393, 27.408255672878973], [95.74792617639116, 27.4018108654044], [95.73632552293692, 27.389741498679296], [95.71078064967409, 27.378961093449103], [95.68699345117703, 27.38692921905403], [95.69144622725037, 27.413411518858627], [95.72390462125867, 27.42442628072426], [95.72390462125867, 27.42442628072426], [95.72671690088393, 27.408255672878973], [95.72671690088393, 27.408255672878973]]]]}}, {"type": "Feature", "properties": {"id": 83, "tea": false}, "geometry": {"type": "MultiPolygon", "coordinates": [[[[95.64401902726209, 27.653543809794723], [95.64695221916936, 27.649772563056796], [95.64758076029236, 27.64113012261572], [95.64669032703479, 27.63159724891708], [95.64129534906249, 27.627668866898407], [95.63307193603673, 27.627302217909996], [95.6275722012106, 27.629344976559707], [95.62825312076049, 27.637463632731627], [95.63081966367936, 27.653648566648553], [95.63081966367936, 27.653648566648553], [95.64401902726209, 27.653543809794723]]]]}}, {"type": "Feature", "properties": {"id": 86, "tea": false}, "geometry": {"type": "MultiPolygon", "coordinates": [[[[95.67895110046071, 27.616933798062558], [95.68894611977733, 27.617502377005717], [95.68894611977733, 27.617502377005717], [95.69068178181435, 27.608435039122682], [95.69026282890886, 27.603886407577395], [95.68604337464646, 27.60265947406847], [95.68044736083745, 27.604873939426042], [95.67682641072574, 27.609332795348724], [95.67895110046071, 27.616933798062558]]]]}}, {"type": "Feature", "properties": {"id": 90, "tea": false}, "geometry": {"type": "MultiPolygon", "coordinates": [[[[95.87923757509937, 27.70125779802621], [95.87861209369724, 27.7022740081082], [95.88006796945947, 27.702849017863034], [95.88096106971699, 27.701931449105324], [95.8801536092102, 27.70041440209258], [95.88071638471493, 27.69968034708641], [95.88074085321513, 27.698554796076955], [95.88115681771863, 27.697759569820274], [95.88020254621061, 27.697319136816574], [95.87919933770218, 27.699533536085177], [95.8784285799457, 27.701405376350905], [95.87853868819663, 27.70221283685769], [95.87923757509937, 27.70125779802621]]]]}}, {"type": "Feature", "properties": {"id": 118, "tea": false}, "geometry": {"type": "MultiPolygon", "coordinates": [[[[95.41041075198306, 27.670747195512348], [95.41448701973177, 27.670811515319034], [95.4136830221482, 27.669878878122095], [95.41295942432299, 27.668013603728213], [95.41176146792347, 27.6665020882711], [95.40955851454449, 27.665818690325064], [95.40761284039225, 27.66668700771532], [95.40692944244621, 27.668713081625917], [95.40803895911154, 27.670481876309772], [95.40803895911154, 27.670481876309772], [95.41041075198306, 27.670747195512348]]]]}}, {"type": "Feature", "properties": {"id": 104, "tea": false}, "geometry": {"type": "MultiPolygon", "coordinates": [[[[95.44631717123052, 27.71123595189351], [95.43935874558898, 27.708370667237336], [95.44223174107658, 27.712261181960137], [95.44787797526403, 27.715034420659983], [95.45136946283579, 27.71373758241905], [95.44987148568013, 27.71046596501081], [95.44901212531998, 27.70861662151575], [95.44728652971678, 27.70786038439881], [95.44552655969918, 27.70759913884932], [95.4441240835914, 27.708705994993206], [95.44436470449224, 27.710390341299114], [95.44631717123052, 27.71123595189351]]]]}}, {"type": "Feature", "properties": {"id": 107, "tea": false}, "geometry": {"type": "MultiPolygon", "coordinates": [[[[95.72525485753214, 27.71623877687195], [95.721992017766, 27.716229781202767], [95.7205568082981, 27.71856936923947], [95.72085171435315, 27.719984918303695], [95.72295537754582, 27.719965257900025], [95.72984017411277, 27.7193478451876], [95.73252426186728, 27.71867682324897], [95.73482810385657, 27.71664139003513], [95.73764639599881, 27.714740161209015], [95.73735561982541, 27.712056073454498], [95.73375446875477, 27.70997590544475], [95.72995201110254, 27.709841701057023], [95.72954939793937, 27.711519255903596], [95.7279613126846, 27.712235012638132], [95.72608245125645, 27.71585853110673], [95.72525485753214, 27.71623877687195]]]]}}, {"type": "Feature", "properties": {"id": 108, "tea": false}, "geometry": {"type": "MultiPolygon", "coordinates": [[[[95.7298135506831, 27.709662486789938], [95.73545315789815, 27.7059374899676], [95.73579484293897, 27.70223152144793], [95.7337972996234, 27.700996198608042], [95.73137922087298, 27.69894608836312], [95.72906627598127, 27.696895978118196], [95.72614881140196, 27.69731651355305], [95.72466932175985, 27.700067632843187], [95.72536292565961, 27.70523112854144], [95.7298135506831, 27.709662486789938]]]]}}, {"type": "Feature", "properties": {"id": 113, "tea": false}, "geometry": {"type": "MultiPolygon", "coordinates": [[[[95.66587870597328, 27.71754009697169], [95.66729023017076, 27.72075131452095], [95.6744890035779, 27.716552030033455], [95.67999394794806, 27.711717559657096], [95.67558293483094, 27.707482987064665], [95.67293632696067, 27.703636583626544], [95.66841944952874, 27.701872178379695], [95.66429074125112, 27.70494224350921], [95.66383199588695, 27.711470542922537], [95.66587870597328, 27.71754009697169]]]]}}, {"type": "Feature", "properties": {"id": 109, "tea": false}, "geometry": {"type": "MultiPolygon", "coordinates": [[[[95.98079173722782, 27.68795523331487], [95.99922074641364, 27.69879033385331], [96.00005395245091, 27.70128995196509], [96.0112924088549, 27.68622504934899], [96.01168787947567, 27.670455658345684], [95.9937928338857, 27.66145870172311], [95.98202758291772, 27.656663620446245], [95.97125100850168, 27.653005517204097], [95.97060836874292, 27.659382480964055], [95.96556611832807, 27.66521567262045], [95.96937252305301, 27.67846393841633], [95.96937252305301, 27.67846393841633], [95.98079173722782, 27.68795523331487]]]]}}, {"type": "Feature", "properties": {"id": 110, "tea": false}, "geometry": {"type": "MultiPolygon", "coordinates": [[[[95.96844123051501, 27.735120521981614], [95.95547180746391, 27.734937564588048], [95.95851308854179, 27.739033983999068], [95.96180263746275, 27.74170286331231], [95.97001241000218, 27.736837181050934], [95.98144710515885, 27.734858658733753], [95.97763554010663, 27.72810840612219], [95.96166188198703, 27.718564945533426], [95.95281672339256, 27.715160723311214], [95.95197294181611, 27.72531519814499], [95.95889776992625, 27.734829562817325], [95.95889776992625, 27.734829562817325], [95.96844123051501, 27.735120521981614]]]]}}, {"type": "Feature", "properties": {"id": 111, "tea": false}, "geometry": {"type": "MultiPolygon", "coordinates": [[[[96.03476235707299, 27.749643587149404], [96.04933186775557, 27.755775105805984], [96.05674293243912, 27.746403569339993], [96.05810521265444, 27.740070807257958], [96.05331882270872, 27.733296224565546], [96.04543968849038, 27.729945751603537], [96.03929101832932, 27.73097666636108], [96.02824550306997, 27.731381668587257], [96.02460048303438, 27.744047192751328], [96.02460048303438, 27.744047192751328], [96.03476235707299, 27.749643587149404]]]]}}, {"type": "Feature", "properties": {"id": 114, "tea": false}, "geometry": {"type": "MultiPolygon", "coordinates": [[[[95.89711202284371, 27.668372442777414], [95.89849867959822, 27.66781136779004], [95.89965289100083, 27.668316335278675], [95.89935632279321, 27.666729294600103], [95.8992921999375, 27.665847605334232], [95.89846661817037, 27.665005992853168], [95.89863494066658, 27.666432726392493], [95.89814600389187, 27.666216311754503], [95.89789752782603, 27.665414776058256], [95.89717614569942, 27.665278514989893], [95.89714408427156, 27.665951804974743], [95.89658300928419, 27.666152188898806], [95.89640667143101, 27.666937693881128], [95.89601391893986, 27.666464787820342], [95.89544482859552, 27.666673187101367], [95.89711202284371, 27.668372442777414]]]]}}, {"type": "Feature", "properties": {"id": 115, "tea": false}, "geometry": {"type": "MultiPolygon", "coordinates": [[[[95.91032162652522, 27.668716045387825], [95.91222212816898, 27.668232927212962], [95.9115152126043, 27.666691211860826], [95.9115152126043, 27.666691211860826], [95.91033938822282, 27.667224062788986], [95.90995218321504, 27.667906111977025], [95.90995218321504, 27.667906111977025], [95.91032162652522, 27.668716045387825]]]]}}, {"type": "Feature", "properties": {"id": 116, "tea": false}, "geometry": {"type": "MultiPolygon", "coordinates": [[[[95.90516582985612, 27.67158948925105], [95.90767813933329, 27.66991730898812], [95.90774276465746, 27.66981229283634], [95.90716921490542, 27.669335681070578], [95.90568283244949, 27.66905294527733], [95.90545664381489, 27.669828449167383], [95.90428530981428, 27.670248513774496], [95.90428530981428, 27.670248513774496], [95.90516582985612, 27.67158948925105]]]]}}, {"type": "Feature", "properties": {"id": 119, "tea": false}, "geometry": {"type": "MultiPolygon", "coordinates": [[[[95.9534802241646, 27.69359817814532], [95.95849259221119, 27.69198001208303], [95.9663071502681, 27.679310955839266], [95.95612454431516, 27.67402231553813], [95.9549010529022, 27.677455984987375], [95.94436323976487, 27.674732729906943], [95.94456057708955, 27.685586282763747], [95.9540722361386, 27.68917782207273], [95.9534802241646, 27.69359817814532]]]]}}, {"type": "Feature", "properties": {"id": 121, "tea": false}, "geometry": {"type": "MultiPolygon", "coordinates": [[[[95.93479842406104, 27.55897787612859], [95.94694971713123, 27.566633893149692], [95.94895151974684, 27.569197605271437], [95.94961878728537, 27.573271449190923], [95.95390334726966, 27.57386847804119], [95.95386822792553, 27.572042272146252], [95.953200960387, 27.568881531174235], [95.955834911197, 27.56610710298769], [95.95407894399033, 27.565545193481555], [95.95450037611992, 27.561646946282735], [95.95811766856568, 27.563262436112876], [95.95787183315674, 27.562173736444738], [95.95899565216902, 27.5609796787442], [95.95997899380475, 27.561611826938602], [95.96229687051756, 27.55925883088166], [95.95524320806348, 27.546263668755113], [95.94729915658016, 27.556181840816627], [95.94729915658016, 27.556181840816627], [95.93479842406104, 27.55897787612859]]]]}}, {"type": "Feature", "properties": {"id": 124, "tea": false}, "geometry": {"type": "MultiPolygon", "coordinates": [[[[96.01091722014579, 27.629630266405865], [96.0039080840535, 27.627761163447925], [96.00140178690536, 27.62198393612338], [95.99749366253876, 27.62657173429287], [95.99770606060216, 27.63396318689927], [96.01554749792795, 27.637106678237622], [96.03126495461972, 27.63311359464566], [96.02799402444332, 27.62351320217988], [96.01656700863228, 27.61790589330606], [96.00743389190599, 27.6180333321441], [96.0019540218702, 27.622281293412147], [96.00361072676475, 27.627846122673287], [96.01091722014579, 27.629630266405865]]]]}}, {"type": "Feature", "properties": {"id": 125, "tea": false}, "geometry": {"type": "MultiPolygon", "coordinates": [[[[95.62786188285861, 27.512965373583327], [95.65760957340814, 27.509189112347766], [95.6613858346437, 27.490539005837444], [95.64820745359714, 27.482678217143008], [95.63048214575676, 27.48152221880559], [95.62023229383166, 27.502021922655782], [95.62786188285861, 27.512965373583327]]]]}}, {"type": "Feature", "properties": {"id": 126, "tea": false}, "geometry": {"type": "MultiPolygon", "coordinates": [[[[95.70235344974401, 27.491364765000792], [95.70456278734869, 27.48659540128275], [95.71155902309684, 27.484701683335878], [95.70871844617655, 27.48170329658667], [95.70110850553819, 27.48312358504682], [95.6978646368329, 27.48778774221226], [95.69602352216233, 27.49154010925513], [95.70051233507344, 27.492820122311812], [95.70235344974401, 27.491364765000792]]]]}}, {"type": "Feature", "properties": {"id": 139, "tea": false}, "geometry": {"type": "MultiPolygon", "coordinates": [[[[95.69551468240955, 27.463186205657717], [95.70085148163881, 27.454900242629773], [95.68374505063018, 27.45093039577123], [95.6758775359469, 27.46045802823173], [95.68598260067772, 27.46991348165844], [95.69551468240955, 27.463186205657717]]]]}}, {"type": "Feature", "properties": {"id": 128, "tea": false}, "geometry": {"type": "MultiPolygon", "coordinates": [[[[95.65040950362962, 27.47064380547627], [95.66887311235563, 27.46528794950995], [95.67260811717425, 27.458029355239802], [95.66020508230487, 27.44774047404134], [95.64026156600922, 27.462046247214545], [95.65040950362962, 27.47064380547627], [95.65040950362962, 27.47064380547627]]]]}}, {"type": "Feature", "properties": {"id": 129, "tea": false}, "geometry": {"type": "MultiPolygon", "coordinates": [[[[95.57189796766451, 27.451235114123286], [95.59254024966098, 27.44016485805259], [95.59195760460464, 27.430925772159004], [95.58022146846955, 27.424599911547176], [95.55550067107859, 27.433755762432714], [95.55375273590954, 27.45265010926014], [95.57189796766451, 27.451235114123286]]]]}}, {"type": "Feature", "properties": {"id": 136, "tea": false}, "geometry": {"type": "MultiPolygon", "coordinates": [[[[95.42324722970339, 27.237529320343427], [95.46293444743417, 27.22571995311622], [95.44047729008406, 27.14460315199819], [95.39943489906491, 27.162414000931026], [95.42324722970339, 27.237529320343427]]]]}}, {"type": "Feature", "properties": {"id": 130, "tea": false}, "geometry": {"type": "MultiPolygon", "coordinates": [[[[95.48764599937614, 27.298317822211345], [95.58255392828877, 27.36986379939163], [95.60591588002112, 27.343094896364992], [95.51149465843625, 27.272522333840218], [95.48764599937614, 27.298317822211345]]]]}}, {"type": "Feature", "properties": {"id": 131, "tea": false}, "geometry": {"type": "MultiPolygon", "coordinates": [[[[95.49925860004281, 27.394771403059924], [95.5222425526075, 27.393692046171527], [95.52135367046411, 27.37426362218039], [95.4941157819275, 27.37223189156694], [95.48903645539389, 27.386644480606115], [95.48757614901547, 27.397628524235092], [95.49925860004281, 27.394771403059924]]]]}}, {"type": "Feature", "properties": {"id": 132, "tea": false}, "geometry": {"type": "MultiPolygon", "coordinates": [[[[95.75383703220545, 27.49300350100554], [95.74524158238916, 27.494265531335706], [95.74742455377107, 27.49743766162505], [95.75247267509175, 27.499586524079124], [95.75850995531985, 27.49668726521252], [95.76246659094957, 27.49204845102595], [95.76185263024841, 27.48768250826212], [95.75953322315513, 27.48287314943634], [95.74970985193652, 27.480963049477165], [95.74316093779078, 27.48413517976651], [95.74612841451307, 27.49416320455218], [95.75383703220545, 27.49300350100554]]]]}}, {"type": "Feature", "properties": {"id": 134, "tea": false}, "geometry": {"type": "MultiPolygon", "coordinates": [[[[95.71665509546689, 27.463323729566653], [95.7213264571524, 27.47125699036016], [95.72881674399297, 27.4712167200008], [95.73248134669454, 27.46759238765859], [95.73409216106886, 27.4625183223795], [95.7300248547737, 27.458934260396646], [95.7239037601513, 27.456679120272604], [95.71351400743697, 27.46054507477096], [95.71665509546689, 27.463323729566653]]]]}}, {"type": "Feature", "properties": {"id": 135, "tea": false}, "geometry": {"type": "MultiPolygon", "coordinates": [[[[95.81627189776417, 27.46773254709647], [95.81627189776417, 27.46773254709647], [95.83558128999441, 27.464631341677677], [95.83558128999441, 27.464631341677677], [95.83230454464625, 27.440523858044763], [95.80731936136651, 27.45550326535065], [95.80164357031701, 27.47001456617823], [95.81627189776417, 27.46773254709647]]]]}}, {"type": "Feature", "properties": {"id": 137, "tea": false}, "geometry": {"type": "MultiPolygon", "coordinates": [[[[95.8583894995318, 27.403839900414237], [95.87133506254337, 27.4047757242464], [95.87843172660392, 27.391128293360712], [95.87663806425896, 27.385045438451662], [95.86486228103759, 27.38075624588759], [95.85417829228707, 27.384187599938848], [95.85020104100039, 27.39416972081524], [95.85729770506094, 27.398848839976043], [95.8583894995318, 27.403839900414237]]]]}}]}